TEVEL2-2                
1 63219U 25052K   26068.64848259  .00020339  00000+0  69428-3 0  9991
2 63219  97.3987 324.7700 0004693 105.7930 254.3828 15.30343745 54855
STARLINK-33747          
1 63444U 25069M   26068.47605183  .00026340  00000+0  89821-3 0  9994
2 63444  53.1586 143.3523 0001302  87.4041 272.7109 15.30202464 53320
